QIANFAN-89              
1 63175U 25046S   25232.89115075  .00000134  00000+0  18906-3 0  9993
2 63175  88.9864 331.7781 0018533  96.7050 263.6211 13.50968826 32031
QIANFAN-90              
1 63176U 25046T   25232.84588732  .00000118  00000+0  16374-3 0  9992
2 63176  88.9865 331.7550 0015468  95.5990 264.6925 13.50967742 32041
